{
  "type": "FeatureCollection",
  "features": [
    {
      "type": "Feature",
      "properties": {
        "norad_id": 33376,
        "name": "GALAXY 19 (G-19)",
        "group": "intelsat",
        "lat": 0.025775103112982544,
        "lon": 98.29173602397263,
        "alt_km": 35796.95728647351,
        "timestamp": "2025-12-10T07:43:54.441578+00:00",
        "meta_object_name": "GALAXY 19 (G-19)",
        "meta_object_id": "2008-045A",
        "meta_epoch": "2025-12-09T13:06:40.336416",
        "meta_mean_motion": 1.00278002,
        "meta_eccentricity": 0.0003102,
        "meta_inclination": 0.0187,
        "meta_ra_of_asc_node": 316.6753,
        "meta_arg_of_pericenter": 305.1982,
        "meta_mean_anomaly": 276.3406,
        "meta_ephemeris_type": 0,
        "meta_classification_type": "U",
        "meta_norad_cat_id": 33376,
        "meta_element_set_no": 999,
        "meta_rev_at_epoch": 6300,
        "meta_bstar": 0,
        "meta_mean_motion_dot": -1.38e-06,
        "meta_mean_motion_ddot": 0,
        "tle_line1": "1 33376U 08045A   25343.54630019 -.00000138  00000+0  00000+0 0  9995",
        "tle_line2": "2 33376   0.0187 316.6753 0003102 305.1982 276.3406  1.00278002 63002"
      },
      "geometry": {
        "type": "Point",
        "coordinates": [
          98.29173602397263,
          0.025775103112982544
        ]
      }
    },
    {
      "type": "Feature",
      "properties": {
        "norad_id": 35493,
        "name": "FM-5",
        "group": "intelsat",
        "lat": 0.010038815211943043,
        "lon": 109.12468491957836,
        "alt_km": 35785.44166787598,
        "timestamp": "2025-12-10T07:43:54.441590+00:00",
        "meta_object_name": "FM-5",
        "meta_object_id": "2009-034A",
        "meta_epoch": "2025-12-09T12:27:37.559808",
        "meta_mean_motion": 1.00270693,
        "meta_eccentricity": 6.254e-05,
        "meta_inclination": 0.0203,
        "meta_ra_of_asc_node": 288.1902,
        "meta_arg_of_pericenter": 248.5035,
        "meta_mean_anomaly": 2.5822,
        "meta_ephemeris_type": 0,
        "meta_classification_type": "U",
        "meta_norad_cat_id": 35493,
        "meta_element_set_no": 999,
        "meta_rev_at_epoch": 4474,
        "meta_bstar": 0,
        "meta_mean_motion_dot": -1.98e-06,
        "meta_mean_motion_ddot": 0,
        "tle_line1": "1 35493U 09034A   25343.51918472 -.00000198  00000+0  00000+0 0  9991",
        "tle_line2": "2 35493   0.0203 288.1902 0000625 248.5035   2.5822  1.00270693 44747"
      },
      "geometry": {
        "type": "Point",
        "coordinates": [
          109.12468491957836,
          0.010038815211943043
        ]
      }
    },
    {
      "type": "Feature",
      "properties": {
        "norad_id": 36097,
        "name": "INTELSAT 14 (IS-14)",
        "group": "intelsat",
        "lat": 0.007858962406519118,
        "lon": 150.24815098919515,
        "alt_km": 35791.46013101763,
        "timestamp": "2025-12-10T07:43:54.441602+00:00",
        "meta_object_name": "INTELSAT 14 (IS-14)",
        "meta_object_id": "2009-064A",
        "meta_epoch": "2025-12-09T11:38:48.751008",
        "meta_mean_motion": 1.0027037,
        "meta_eccentricity": 0.0002671,
        "meta_inclination": 0.0101,
        "meta_ra_of_asc_node": 349.1482,
        "meta_arg_of_pericenter": 276.7938,
        "meta_mean_anomaly": 302.243,
        "meta_ephemeris_type": 0,
        "meta_classification_type": "U",
        "meta_norad_cat_id": 36097,
        "meta_element_set_no": 999,
        "meta_rev_at_epoch": 5870,
        "meta_bstar": 0,
        "meta_mean_motion_dot": -2.71e-06,
        "meta_mean_motion_ddot": 0,
        "tle_line1": "1 36097U 09064A   25343.48528647 -.00000271  00000+0  00000+0 0  9994",
        "tle_line2": "2 36097   0.0101 349.1482 0002671 276.7938 302.2430  1.00270370 58702"
      },
      "geometry": {
        "type": "Point",
        "coordinates": [
          150.24815098919515,
          0.007858962406519118
        ]
      }
    },
    {
      "type": "Feature",
      "properties": {
        "norad_id": 36106,
        "name": "INTELSAT 15 (IS-15)",
        "group": "intelsat",
        "lat": -0.015279596238314907,
        "lon": -79.5734363261649,
        "alt_km": 35776.21096473803,
        "timestamp": "2025-12-10T07:43:54.441614+00:00",
        "meta_object_name": "INTELSAT 15 (IS-15)",
        "meta_object_id": "2009-067A",
        "meta_epoch": "2025-12-09T18:14:38.771808",
        "meta_mean_motion": 1.00270764,
        "meta_eccentricity": 0.0002474,
        "meta_inclination": 0.0278,
        "meta_ra_of_asc_node": 286.2747,
        "meta_arg_of_pericenter": 340.9153,
        "meta_mean_anomaly": 170.3661,
        "meta_ephemeris_type": 0,
        "meta_classification_type": "U",
        "meta_norad_cat_id": 36106,
        "meta_element_set_no": 999,
        "meta_rev_at_epoch": 3932,
        "meta_bstar": 0,
        "meta_mean_motion_dot": -1.82e-06,
        "meta_mean_motion_ddot": 0,
        "tle_line1": "1 36106U 09067A   25343.76017097 -.00000182  00000+0  00000+0 0  9992",
        "tle_line2": "2 36106   0.0278 286.2747 0002474 340.9153 170.3661  1.00270764 39321"
      },
      "geometry": {
        "type": "Point",
        "coordinates": [
          -79.5734363261649,
          -0.015279596238314907
        ]
      }
    },
    {
      "type": "Feature",
      "properties": {
        "norad_id": 36131,
        "name": "DIRECTV 12",
        "group": "intelsat",
        "lat": 0.0026850199594060085,
        "lon": 92.56233059202829,
        "alt_km": 35786.67580152387,
        "timestamp": "2025-12-10T07:43:54.441625+00:00",
        "meta_object_name": "DIRECTV 12",
        "meta_object_id": "2009-075A",
        "meta_epoch": "2025-12-09T10:42:05.901696",
        "meta_mean_motion": 1.00272635,
        "meta_eccentricity": 5.415e-05,
        "meta_inclination": 0.0402,
        "meta_ra_of_asc_node": 141.0164,
        "meta_arg_of_pericenter": 200.367,
        "meta_mean_anomaly": 154.8575,
        "meta_ephemeris_type": 0,
        "meta_classification_type": "U",
        "meta_norad_cat_id": 36131,
        "meta_element_set_no": 999,
        "meta_rev_at_epoch": 4465,
        "meta_bstar": 0,
        "meta_mean_motion_dot": -1.01e-06,
        "meta_mean_motion_ddot": 0,
        "tle_line1": "1 36131U 09075A   25343.44590164 -.00000101  00000+0  00000+0 0  9996",
        "tle_line2": "2 36131   0.0402 141.0164 0000541 200.3670 154.8575  1.00272635 44657"
      },
      "geometry": {
        "type": "Point",
        "coordinates": [
          92.56233059202829,
          0.0026850199594060085
        ]
      }
    },
    {
      "type": "Feature",
      "properties": {
        "norad_id": 36397,
        "name": "INTELSAT 16 (IS-16)",
        "group": "intelsat",
        "lat": 0.011914450536841589,
        "lon": 119.05263730483433,
        "alt_km": 35794.34128292397,
        "timestamp": "2025-12-10T07:43:54.441638+00:00",
        "meta_object_name": "INTELSAT 16 (IS-16)",
        "meta_object_id": "2010-006A",
        "meta_epoch": "2025-12-09T12:32:17.671200",
        "meta_mean_motion": 1.00270281,
        "meta_eccentricity": 0.00022839,
        "meta_inclination": 0.0146,
        "meta_ra_of_asc_node": 310.5057,
        "meta_arg_of_pericenter": 312.0313,
        "meta_mean_anomaly": 287.8475,
        "meta_ephemeris_type": 0,
        "meta_classification_type": "U",
        "meta_norad_cat_id": 36397,
        "meta_element_set_no": 999,
        "meta_rev_at_epoch": 5775,
        "meta_bstar": 0,
        "meta_mean_motion_dot": -2.42e-06,
        "meta_mean_motion_ddot": 0,
        "tle_line1": "1 36397U 10006A   25343.52242675 -.00000242  00000+0  00000+0 0  9992",
        "tle_line2": "2 36397   0.0146 310.5057 0002283 312.0313 287.8475  1.00270281 57756"
      },
      "geometry": {
        "type": "Point",
        "coordinates": [
          119.05263730483433,
          0.011914450536841589
        ]
      }
    },
    {
      "type": "Feature",
      "properties": {
        "norad_id": 37185,
        "name": "XM-5",
        "group": "intelsat",
        "lat": 0.030236817330534602,
        "lon": 80.05765556262658,
        "alt_km": 35784.77611626567,
        "timestamp": "2025-12-10T07:43:54.441650+00:00",
        "meta_object_name": "XM-5",
        "meta_object_id": "2010-053A",
        "meta_epoch": "2025-12-09T14:44:15.985824",
        "meta_mean_motion": 1.00269308,
        "meta_eccentricity": 0.0001556,
        "meta_inclination": 0.0634,
        "meta_ra_of_asc_node": 272.6835,
        "meta_arg_of_pericenter": 239.9307,
        "meta_mean_anomaly": 31.8615,
        "meta_ephemeris_type": 0,
        "meta_classification_type": "U",
        "meta_norad_cat_id": 37185,
        "meta_element_set_no": 999,
        "meta_rev_at_epoch": 5558,
        "meta_bstar": 0,
        "meta_mean_motion_dot": -2e-07,
        "meta_mean_motion_ddot": 0,
        "tle_line1": "1 37185U 10053A   25343.61407391 -.00000020  00000+0  00000+0 0  9992",
        "tle_line2": "2 37185   0.0634 272.6835 0001556 239.9307  31.8615  1.00269308 55588"
      },
      "geometry": {
        "type": "Point",
        "coordinates": [
          80.05765556262658,
          0.030236817330534602
        ]
      }
    }
  ]
}